ONEWEB-0275             
1 48993U 21060AC  24273.47046890  .00000175  00000+0  42463-3 0  9992
2 48993  87.9170 353.4000 0002007 104.5738 255.5616 13.16594139157228
ONEWEB-0276             
1 48994U 21060AD  24273.50371867  .00001336  00000+0  34603-2 0  9998
2 48994  87.9183 353.3919 0002665 100.6791 259.4640 13.16590139157245
ONEWEB-0277             
1 48995U 21060AE  24273.51638600  .00001009  00000+0  26046-2 0  9990
2 48995  87.9170 353.4249 0002426 106.3761 253.7636 13.16591149157237
ONEWEB-0278             
1 48996U 21060AF  24273.50688122  .00000012  00000+0 -29386-5 0  9991
2 48996  87.9170 353.3861 0002031  93.3541 266.7823 13.16595351157365
ONEWEB-0279             
1 48997U 21060AG  24273.51480390  .00000091  00000+0  20450-3 0  9997
2 48997  87.9169 353.3817 0002220 111.2154 248.9215 13.16595533157296
ONEWEB-0280             
1 48998U 21060AH  24273.30105219  .00000177  00000+0  43061-3 0  9997
2 48998  87.9174 353.4269 0002112  99.3101 260.8268 13.16596760157208
ONEWEB-0281             
1 48999U 21060AJ  24273.45938920  .00000181  00000+0  43906-3 0  9990
2 48999  87.9170 353.3964 0001704 103.6907 256.4414 13.16595666157292
ONEWEB-0282             
1 49000U 21060AK  24273.48946842  .00000053  00000+0  10395-3 0  9993
2 49000  87.9170 353.4067 0002255 103.5615 256.5767 13.16595339157275
